{"type": "FeatureCollection", "features": [{"type": "Feature", "properties": {"iso": "TKM", "nom": "Turkmaniston"}, "geometry": {"type": "MultiPolygon", "coordinates": [[[[53.10957, 38.803076], [53.100195, 38.756152], [53.045898, 38.897217], [53.018555, 39.052734], [53.05332, 39.096582], [53.092188, 39.094092], [53.055176, 39.037939], [53.10957, 38.803076]]], [[[55.977441, 41.322217], [56.773633, 41.287988], [57.017969, 41.263477], [57.118848, 41.350293], [57.113867, 41.371777], [57.018164, 41.450586], [56.964063, 41.856543], [57.113574, 41.957129], [57.228809, 42.084473], [57.290625, 42.123779], [57.381738, 42.156299], [57.686133, 42.164795], [57.814258, 42.189844], [57.923438, 42.335205], [57.945703, 42.42002], [58.028906, 42.487646], [58.28291, 42.428857], [58.327246, 42.398926], [58.39707, 42.29248], [58.474414, 42.299365], [58.48584, 42.316846], [58.476953, 42.340137], [58.418164, 42.406689], [58.288672, 42.527295], [58.162012, 42.602979], [58.151563, 42.628076], [58.259668, 42.688086], [58.477148, 42.662842], [58.532324, 42.681934], [58.589063, 42.778467], [58.876953, 42.561475], [58.930859, 42.540283], [59.15957, 42.511426], [59.199121, 42.481689], [59.276563, 42.356152], [59.354297, 42.323291], [59.451074, 42.299512], [59.858301, 42.295166], [59.985156, 42.211719], [60.006055, 42.19082], [59.981641, 42.131738], [59.974121, 42.018799], [59.941797, 41.973535], [59.962598, 41.954395], [60.106934, 41.907422], [60.19209, 41.834424], [60.200781, 41.803125], [60.176367, 41.782275], [60.108594, 41.792676], [60.075586, 41.759668], [60.075586, 41.700537], [60.124023, 41.644971], [60.137988, 41.594141], [60.06875, 41.476221], [60.067383, 41.427344], [60.089648, 41.399414], [60.45498, 41.221631], [60.867188, 41.248682], [61.242383, 41.189209], [61.328906, 41.195117], [61.3875, 41.252148], [61.496973, 41.276074], [61.644531, 41.239844], [61.799902, 41.163428], [61.902832, 41.093701], [61.953516, 41.030615], [62.09502, 40.683301], [62.188477, 40.541211], [62.298047, 40.46748], [62.375, 40.33208], [62.441602, 40.03623], [62.483203, 39.975635], [62.650684, 39.858496], [63.506055, 39.3771], [63.763672, 39.160547], [64.162793, 38.953613], [64.309961, 38.977295], [64.621875, 38.756445], [65.07666, 38.539453], [65.612891, 38.238574], [65.728516, 38.226367], [65.857129, 38.26875], [65.971191, 38.244238], [66.173145, 38.166699], [66.389746, 38.050928], [66.574512, 38.010791], [66.626367, 37.959863], [66.629297, 37.932031], [66.525586, 37.785742], [66.511328, 37.59917], [66.522266, 37.348486], [66.471875, 37.344727], [66.108398, 37.414746], [65.765039, 37.569141], [65.683008, 37.519141], [65.641211, 37.467822], [65.55498, 37.251172], [65.089648, 37.237939], [64.816309, 37.13208], [64.56582, 36.427588], [64.511035, 36.340674], [64.358008, 36.226074], [64.092188, 36.112695], [64.051367, 36.067627], [64.042383, 36.025098], [64.009668, 36.012109], [63.8625, 36.012354], [63.30166, 35.858398], [63.12998, 35.846191], [63.108594, 35.818701], [63.169727, 35.678125], [63.119336, 35.637549], [63.08418, 35.568066], [63.056641, 35.445801], [62.688086, 35.255322], [62.610547, 35.233154], [62.462891, 35.251367], [62.386621, 35.23125], [62.307813, 35.170801], [62.271191, 35.189111], [62.252832, 35.250244], [62.213086, 35.289941], [61.983887, 35.443701], [61.719727, 35.419434], [61.620996, 35.432324], [61.542773, 35.457861], [61.421777, 35.545801], [61.344727, 35.629492], [61.262012, 35.61958], [61.238867, 35.659277], [61.235547, 35.705566], [61.258691, 35.761816], [61.252148, 35.867627], [61.205859, 35.943701], [61.15293, 35.976758], [61.212402, 36.099121], [61.212012, 36.190527], [61.175098, 36.289697], [61.160352, 36.432715], [61.169922, 36.572266], [61.119629, 36.642578], [60.341309, 36.637646], [60.062793, 36.962891], [59.948633, 37.041602], [59.562207, 37.178906], [59.45498, 37.252832], [59.367383, 37.33374], [59.344727, 37.444727], [59.301758, 37.510645], [59.24082, 37.520752], [58.937207, 37.649658], [58.81543, 37.683496], [58.650195, 37.651562], [58.550488, 37.688184], [58.435742, 37.638525], [58.386719, 37.635352], [58.261621, 37.66582], [58.108789, 37.783057], [57.980566, 37.830469], [57.710547, 37.905273], [57.520996, 37.928467], [57.353711, 37.97334], [57.335742, 37.989941], [57.331445, 38.089307], [57.308105, 38.130371], [57.260156, 38.17959], [57.193555, 38.216406], [56.906641, 38.213037], [56.774609, 38.250049], [56.669922, 38.256641], [56.440625, 38.249414], [56.324121, 38.191113], [56.296973, 38.094824], [56.27207, 38.08042], [55.578418, 38.099756], [55.380859, 38.051123], [55.075586, 37.90249], [54.900098, 37.77793], [54.848633, 37.722656], [54.745215, 37.501904], [54.699414, 37.470166], [54.191602, 37.332471], [53.91416, 37.343555], [53.847852, 37.66958], [53.823535, 37.92793], [53.854102, 38.285645], [53.840039, 38.514941], [53.885352, 38.864062], [53.868652, 38.949268], [53.724121, 39.103076], [53.70459, 39.20957], [53.617578, 39.215967], [53.475, 39.305713], [53.336328, 39.34082], [53.266797, 39.342627], [53.20332, 39.316797], [53.156641, 39.26499], [53.124023, 39.34668], [53.124805, 39.43208], [53.235645, 39.608545], [53.30498, 39.55708], [53.389648, 39.536426], [53.603125, 39.546973], [53.582422, 39.607422], [53.472266, 39.668799], [53.450488, 39.748535], [53.458301, 39.831201], [53.487305, 39.909375], [53.404199, 39.960352], [52.9875, 39.987598], [52.952148, 39.895459], [53.035547, 39.774414], [52.898242, 39.9125], [52.804688, 40.054004], [52.744434, 40.219775], [52.733691, 40.39873], [52.849902, 40.685645], [52.943457, 41.038086], [53.05957, 40.889746], [53.145215, 40.824951], [53.33291, 40.782715], [53.423633, 40.792773], [53.520313, 40.831055], [53.615234, 40.818506], [53.76377, 40.665674], [53.87002, 40.648682], [54.192969, 40.72041], [54.283301, 40.693701], [54.377344, 40.693262], [54.33623, 40.764941], [54.319434, 40.83457], [54.374414, 40.871387], [54.54707, 40.832275], [54.685059, 40.873047], [54.710059, 40.891113], [54.723242, 40.95127], [54.703711, 41.071143], [54.671484, 41.122168], [54.592188, 41.193555], [54.28457, 41.363721], [54.181055, 41.431592], [54.094824, 41.519385], [53.846484, 42.091162], [53.804688, 42.117627], [53.624902, 42.136377], [53.284961, 42.081836], [53.16416, 42.093799], [52.97002, 41.976221], [52.905273, 41.895752], [52.814844, 41.711816], [52.883496, 41.652539], [52.830176, 41.341895], [52.861816, 41.210059], [52.850391, 41.200293], [52.747266, 41.36543], [52.609375, 41.529443], [52.493848, 41.780371], [52.696875, 41.944385], [52.870508, 42.060596], [53.055859, 42.147754], [53.250098, 42.205859], [53.685352, 42.296875], [53.926367, 42.329785], [54.120996, 42.335205], [54.271875, 42.27998], [54.67793, 42.078223], [54.853809, 41.965186], [54.903711, 41.919092], [54.952344, 41.81001], [55.249609, 41.458105], [55.434375, 41.296289], [55.545215, 41.262744], [55.977441, 41.322217]]]]}}, {"type": "Feature", "properties": {"iso": "TJK", "nom": "Tojikiston"}, "geometry": {"type": "MultiPolygon", "coordinates": [[[[67.758984, 37.172217], [67.798047, 37.244971], [67.814355, 37.487012], [67.863574, 37.570703], [68.010938, 37.720947], [68.087598, 37.835449], [68.174023, 37.928418], [68.236523, 37.959668], [68.294043, 38.03291], [68.341211, 38.116797], [68.350293, 38.211035], [68.144141, 38.383105], [68.087207, 38.473535], [68.047852, 38.669287], [68.148535, 38.890625], [68.13252, 38.927637], [68.103516, 38.962012], [68.044336, 38.983594], [67.768555, 38.982227], [67.694434, 38.994629], [67.676563, 39.008496], [67.667285, 39.10918], [67.64834, 39.131055], [67.357617, 39.216699], [67.349609, 39.24209], [67.426172, 39.465576], [67.54248, 39.557617], [67.719043, 39.621387], [68.303027, 39.537695], [68.463281, 39.536719], [68.586133, 39.634961], [68.638965, 39.838867], [68.735254, 39.83623], [68.777832, 39.904199], [68.797656, 39.909131], [68.832422, 39.884326], [68.86875, 39.907471], [68.789453, 40.01333], [68.804688, 40.050342], [68.955664, 40.071338], [68.97207, 40.089941], [68.966016, 40.11958], [68.926855, 40.136328], [68.639746, 40.129199], [68.622461, 40.147266], [68.630664, 40.16709], [68.652539, 40.182666], [68.951758, 40.222607], [69.22832, 40.187598], [69.274902, 40.198096], [69.219531, 40.288135], [69.294434, 40.296582], [69.304199, 40.327393], [69.20625, 40.566553], [69.259961, 40.587646], [69.313965, 40.634766], [69.309375, 40.723926], [69.357227, 40.767383], [69.413867, 40.797168], [69.498242, 40.76709], [69.628418, 40.679053], [69.712891, 40.656982], [70.29209, 40.891699], [70.372656, 41.027637], [70.401953, 41.035107], [70.441504, 41.023438], [70.657324, 40.839648], [70.63916, 40.778564], [70.750977, 40.7396], [70.751074, 40.721777], [70.712012, 40.669092], [70.382617, 40.453516], [70.371582, 40.384131], [70.398242, 40.361377], [70.533594, 40.324512], [70.602734, 40.21416], [70.653125, 40.201172], [70.958008, 40.238867], [70.946387, 40.187598], [70.738574, 40.131152], [70.644336, 40.083447], [70.624121, 39.998975], [70.556836, 39.954492], [70.515137, 39.949902], [70.451367, 40.049219], [69.966797, 40.202246], [69.530273, 40.097314], [69.46875, 40.020752], [69.487891, 39.950439], [69.47627, 39.919727], [69.431934, 39.909766], [69.307227, 39.968555], [69.278809, 39.917773], [69.229102, 39.761084], [69.280273, 39.665869], [69.297656, 39.524805], [69.463281, 39.53208], [69.598828, 39.573779], [69.955957, 39.553076], [70.136816, 39.557568], [70.171094, 39.58418], [70.209277, 39.575], [70.244824, 39.542627], [70.39209, 39.581885], [70.501172, 39.587354], [70.607813, 39.564404], [70.733105, 39.413281], [70.799316, 39.394727], [71.004883, 39.411865], [71.065039, 39.493408], [71.272852, 39.535303], [71.404297, 39.597852], [71.470313, 39.603662], [71.517383, 39.553857], [71.50332, 39.478809], [71.546289, 39.453076], [71.672656, 39.44707], [71.732227, 39.422998], [71.725684, 39.306592], [71.778613, 39.277979], [71.805957, 39.275586], [71.991016, 39.350928], [72.042773, 39.352148], [72.22998, 39.20752], [72.357715, 39.336865], [72.563379, 39.377197], [72.639941, 39.385986], [72.872461, 39.3604], [73.109277, 39.361914], [73.234961, 39.374561], [73.387402, 39.442725], [73.47041, 39.460596], [73.631641, 39.448877], [73.636328, 39.39668], [73.607324, 39.229199], [73.69043, 39.104541], [73.795605, 39.002148], [73.805273, 38.968652], [73.794531, 38.941309], [73.72998, 38.914697], [73.696094, 38.854297], [73.80166, 38.606885], [73.869141, 38.562891], [73.97002, 38.533691], [74.025586, 38.539844], [74.065332, 38.608496], [74.131348, 38.661182], [74.277441, 38.659766], [74.514063, 38.6], [74.74502, 38.51001], [74.812305, 38.460303], [74.835938, 38.404297], [74.77207, 38.274756], [74.775098, 38.191895], [74.789648, 38.103613], [74.84248, 38.038086], [74.89082, 37.925781], [74.900293, 37.832715], [74.938281, 37.77251], [74.894238, 37.601416], [74.91582, 37.572803], [75.097461, 37.45127], [75.11875, 37.385693], [75.008398, 37.293555], [74.891309, 37.231641], [74.730566, 37.357031], [74.659375, 37.394482], [74.524219, 37.382373], [74.349023, 37.41875], [74.259668, 37.41543], [74.16709, 37.329443], [73.749609, 37.231787], [73.653516, 37.239355], [73.627539, 37.261572], [73.648828, 37.291211], [73.717285, 37.329443], [73.733789, 37.375781], [73.720605, 37.41875], [73.481348, 37.47168], [73.38291, 37.462256], [73.211133, 37.408496], [72.895508, 37.267529], [72.757031, 37.172705], [72.657422, 37.029053], [72.358789, 36.98291], [72.153516, 36.900537], [71.802051, 36.694287], [71.733789, 36.684033], [71.665625, 36.696924], [71.597461, 36.73291], [71.530859, 36.845117], [71.43291, 37.127539], [71.505078, 37.60293], [71.582227, 37.910107], [71.551953, 37.933154], [71.319922, 37.901855], [71.278516, 37.918408], [71.282813, 38.00791], [71.332715, 38.170264], [71.255859, 38.306982], [71.052148, 38.417871], [70.878906, 38.456396], [70.735938, 38.422559], [70.61582, 38.334424], [70.417773, 38.075439], [70.313281, 37.984814], [70.214648, 37.924414], [70.199414, 37.886035], [70.25498, 37.765381], [70.251465, 37.66416], [70.188672, 37.582471], [70.119824, 37.543506], [70.044727, 37.547217], [69.984961, 37.566162], [69.940625, 37.600293], [69.820898, 37.60957], [69.625781, 37.594043], [69.49209, 37.553076], [69.420117, 37.486719], [69.399219, 37.399316], [69.429688, 37.290869], [69.414453, 37.207764], [69.303906, 37.116943], [69.264844, 37.108398], [68.960449, 37.325049], [68.911816, 37.333936], [68.855371, 37.316846], [68.82373, 37.270703], [68.669141, 37.258398], [68.637012, 37.224463], [68.546484, 37.183447], [68.386914, 37.1375], [68.299512, 37.088428], [68.284766, 37.036328], [68.260938, 37.013086], [68.212109, 37.021533], [68.067773, 36.949805], [67.958008, 36.972021], [67.834473, 37.064209], [67.766016, 37.140137], [67.758984, 37.172217]]], [[[70.652539, 40.936621], [70.622754, 40.934424], [70.55, 41.014893], [70.57207, 41.024805], [70.618359, 41.00166], [70.652539, 40.936621]]], [[[70.70166, 39.825293], [70.612109, 39.786768], [70.55957, 39.790918], [70.482813, 39.882715], [70.66416, 39.855469], [70.698242, 39.84585], [70.70166, 39.825293]]]]}}, {"type": "Feature", "properties": {"iso": "KGZ", "nom": "Qirg'iziston"}, "geometry": {"type": "Polygon", "coordinates": [[[70.958008, 40.238867], [71.094531, 40.27124], [71.304688, 40.286914], [71.376172, 40.275195], [71.52041, 40.208984], [71.629883, 40.217139], [71.69248, 40.152344], [71.84541, 40.234326], [71.955664, 40.258594], [72.012598, 40.340723], [72.13125, 40.438623], [72.232813, 40.454395], [72.254004, 40.424219], [72.357715, 40.40166], [72.405957, 40.463086], [72.369727, 40.519727], [72.369043, 40.543457], [72.402051, 40.578076], [72.56748, 40.524365], [72.604102, 40.525439], [72.67959, 40.555615], [72.748828, 40.608691], [72.773828, 40.650391], [73.112891, 40.786035], [73.136914, 40.810645], [73.132129, 40.828516], [72.990039, 40.860107], [72.866602, 40.842334], [72.830957, 40.862158], [72.658301, 40.869922], [72.62041, 40.883789], [72.505957, 40.981689], [72.364063, 41.043457], [72.213086, 41.014258], [72.187305, 41.025928], [72.164258, 41.17373], [72.11543, 41.186572], [72.052441, 41.164746], [71.878613, 41.19502], [71.858008, 41.311377], [71.79248, 41.413135], [71.700684, 41.454004], [71.697266, 41.515576], [71.664941, 41.541211], [71.602246, 41.503271], [71.619629, 41.435449], [71.585547, 41.333252], [71.545605, 41.308057], [71.5, 41.307471], [71.420898, 41.341895], [71.408398, 41.136035], [71.393066, 41.123389], [71.298828, 41.15249], [71.223438, 41.139941], [71.110742, 41.152637], [70.860449, 41.224902], [70.782422, 41.2625], [70.734375, 41.400537], [70.688867, 41.449805], [70.645898, 41.460352], [70.471387, 41.412646], [70.290039, 41.496826], [70.200879, 41.514453], [70.176953, 41.53999], [70.180957, 41.571436], [70.45498, 41.725049], [70.562891, 41.830811], [70.630859, 41.875488], [70.80332, 41.922656], [70.856641, 42.030811], [71.032227, 42.077783], [71.228516, 42.162891], [71.232324, 42.186279], [71.212695, 42.206445], [71.036035, 42.284668], [70.946777, 42.248682], [70.892871, 42.293701], [70.892871, 42.33999], [71.001953, 42.459082], [71.022754, 42.535449], [71.167383, 42.667432], [71.256641, 42.733545], [71.42207, 42.783154], [71.514258, 42.766943], [71.734766, 42.818896], [71.816797, 42.822168], [72.161816, 42.760693], [72.275781, 42.757666], [72.543164, 42.677734], [72.75293, 42.637891], [72.855078, 42.561133], [73.19082, 42.526855], [73.28291, 42.504102], [73.316016, 42.466992], [73.411621, 42.419775], [73.492969, 42.409033], [73.421875, 42.593506], [73.55625, 43.002783], [73.612012, 43.0479], [73.886035, 43.132568], [73.949219, 43.19502], [74.145898, 43.194092], [74.186816, 43.205273], [74.209082, 43.240381], [74.817578, 42.978174], [75.047656, 42.904395], [75.366211, 42.836963], [75.635645, 42.8146], [75.681738, 42.830469], [75.789551, 42.93291], [75.840332, 42.9375], [76.50918, 42.918896], [76.988086, 42.973584], [77.057324, 42.970654], [77.235547, 42.912646], [77.80166, 42.895215], [78.023145, 42.85752], [78.524219, 42.864648], [78.885156, 42.774902], [79.059863, 42.763818], [79.12666, 42.775732], [79.164844, 42.759033], [79.203027, 42.666016], [79.367773, 42.547217], [79.428223, 42.483496], [79.490137, 42.457568], [79.803418, 42.438477], [79.921094, 42.413135], [80.209375, 42.190039], [80.246191, 42.059814], [80.216211, 42.032422], [79.909668, 42.01499], [79.84043, 41.995752], [79.766113, 41.898877], [79.354395, 41.781055], [79.293555, 41.782812], [78.742578, 41.560059], [78.362402, 41.371631], [78.346289, 41.281445], [78.123438, 41.075635], [77.956445, 41.050684], [77.815234, 41.055615], [77.581738, 40.992773], [77.182031, 41.010742], [76.986621, 41.03916], [76.907715, 41.02417], [76.824023, 40.982324], [76.708398, 40.818115], [76.661133, 40.779639], [76.57793, 40.577881], [76.480176, 40.449512], [76.318555, 40.352246], [76.258301, 40.430762], [76.156641, 40.376465], [76.062305, 40.387549], [76.004297, 40.371436], [75.871973, 40.303223], [75.677148, 40.305811], [75.655957, 40.329248], [75.617383, 40.516602], [75.583496, 40.605322], [75.555566, 40.625195], [75.520801, 40.627539], [75.241016, 40.480273], [75.111328, 40.454102], [75.004492, 40.449512], [74.865625, 40.493506], [74.835156, 40.482617], [74.80127, 40.428516], [74.841797, 40.344971], [74.830469, 40.328516], [74.679883, 40.310596], [74.411914, 40.137207], [74.242676, 40.092041], [74.085156, 40.074316], [73.991602, 40.043115], [73.835352, 39.800146], [73.839746, 39.762842], [73.88252, 39.714551], [73.914648, 39.606494], [73.907129, 39.578516], [73.822949, 39.488965], [73.715723, 39.462256], [73.631641, 39.448877], [73.47041, 39.460596], [73.387402, 39.442725], [73.234961, 39.374561], [73.109277, 39.361914], [72.872461, 39.3604], [72.639941, 39.385986], [72.563379, 39.377197], [72.357715, 39.336865], [72.22998, 39.20752], [72.042773, 39.352148], [71.991016, 39.350928], [71.805957, 39.275586], [71.778613, 39.277979], [71.725684, 39.306592], [71.732227, 39.422998], [71.672656, 39.44707], [71.546289, 39.453076], [71.50332, 39.478809], [71.517383, 39.553857], [71.470313, 39.603662], [71.404297, 39.597852], [71.272852, 39.535303], [71.065039, 39.493408], [71.004883, 39.411865], [70.799316, 39.394727], [70.733105, 39.413281], [70.607813, 39.564404], [70.501172, 39.587354], [70.39209, 39.581885], [70.244824, 39.542627], [70.209277, 39.575], [70.171094, 39.58418], [70.136816, 39.557568], [69.955957, 39.553076], [69.598828, 39.573779], [69.463281, 39.53208], [69.297656, 39.524805], [69.280273, 39.665869], [69.229102, 39.761084], [69.278809, 39.917773], [69.307227, 39.968555], [69.431934, 39.909766], [69.47627, 39.919727], [69.487891, 39.950439], [69.46875, 40.020752], [69.530273, 40.097314], [69.966797, 40.202246], [70.451367, 40.049219], [70.515137, 39.949902], [70.556836, 39.954492], [70.624121, 39.998975], [70.644336, 40.083447], [70.738574, 40.131152], [70.946387, 40.187598], [70.958008, 40.238867]], [[71.206152, 39.892578], [71.215625, 39.906787], [71.179297, 39.979834], [71.228711, 40.048145], [71.080371, 40.079883], [71.024121, 40.14917], [70.97627, 40.133252], [70.960645, 40.087988], [70.974414, 40.038867], [71.044824, 39.992529], [71.011719, 39.895117], [71.206152, 39.892578]], [[71.75293, 39.907129], [71.789941, 39.995312], [71.68125, 39.968652], [71.668945, 39.946094], [71.705859, 39.917432], [71.75293, 39.907129]], [[70.70166, 39.825293], [70.698242, 39.84585], [70.66416, 39.855469], [70.482813, 39.882715], [70.55957, 39.790918], [70.612109, 39.786768], [70.70166, 39.825293]]]}}, {"type": "Feature", "properties": {"iso": "KAZ", "nom": "Qozog'iston"}, "geometry": {"type": "MultiPolygon", "coordinates": [[[[50.184473, 44.854639], [50.14873, 44.826465], [50.095313, 44.830615], [49.995117, 44.936963], [50.023047, 45.044727], [50.109863, 45.081934], [50.116602, 45.058252], [50.045313, 45.01001], [50.038867, 44.949121], [50.098145, 44.881543], [50.184473, 44.854639]]], [[[50.311719, 44.97207], [50.277246, 44.958594], [50.256152, 45.022412], [50.294922, 45.075928], [50.349707, 45.083008], [50.311719, 44.97207]]], [[[52.682422, 45.411816], [52.664844, 45.401318], [52.59834, 45.428174], [52.554297, 45.473975], [52.608887, 45.528027], [52.65957, 45.518066], [52.692969, 45.460742], [52.682422, 45.411816]]], [[[70.946777, 42.248682], [70.860352, 42.207227], [70.764551, 42.194189], [70.715234, 42.168652], [70.584277, 42.036035], [70.540137, 42.039453], [70.489063, 42.080273], [70.416016, 42.078564], [70.225879, 41.945996], [70.095605, 41.820508], [69.959961, 41.754053], [69.663867, 41.672119], [69.400977, 41.541895], [69.368359, 41.490576], [69.153613, 41.425244], [69.064941, 41.366943], [69.043457, 41.264111], [68.986914, 41.205029], [68.737109, 41.041895], [68.584082, 40.87627], [68.559277, 40.829297], [68.556543, 40.765137], [68.593652, 40.711279], [68.600684, 40.659961], [68.572656, 40.622656], [68.495703, 40.608643], [68.415039, 40.619434], [68.291895, 40.656104], [68.160254, 40.721777], [68.047656, 40.809277], [68.113086, 41.028613], [68.019727, 41.09624], [67.935742, 41.196582], [67.805078, 41.163916], [67.735059, 41.187256], [66.814258, 41.142383], [66.709668, 41.17915], [66.60166, 41.494336], [66.537891, 41.74126], [66.498633, 41.994873], [66.00957, 42.004883], [66.015527, 42.314795], [66.049805, 42.472754], [66.100293, 42.99082], [65.803027, 42.876953], [65.496191, 43.310547], [65.270508, 43.417529], [65.003125, 43.649072], [64.905469, 43.714697], [64.811816, 43.693945], [64.443164, 43.551172], [63.207031, 43.627979], [62.071973, 43.489355], [61.990234, 43.492139], [61.160742, 44.168604], [61.09707, 44.248242], [61.065332, 44.348389], [61.00791, 44.393799], [58.555273, 45.555371], [57.477344, 45.337451], [55.975684, 44.994922], [55.977441, 41.322217], [55.545215, 41.262744], [55.434375, 41.296289], [55.249609, 41.458105], [54.952344, 41.81001], [54.903711, 41.919092], [54.853809, 41.965186], [54.67793, 42.078223], [54.271875, 42.27998], [54.120996, 42.335205], [53.926367, 42.329785], [53.685352, 42.296875], [53.250098, 42.205859], [53.055859, 42.147754], [52.870508, 42.060596], [52.696875, 41.944385], [52.493848, 41.780371], [52.467578, 41.885889], [52.462109, 42.100635], [52.618359, 42.428223], [52.638477, 42.555664], [52.596582, 42.760156], [52.55, 42.805469], [52.493945, 42.820264], [52.324414, 42.816162], [52.273047, 42.799805], [52.183691, 42.86875], [52.075586, 42.879785], [51.960742, 42.850586], [51.898242, 42.869629], [51.844141, 42.910449], [51.700391, 43.104053], [51.616016, 43.158447], [51.29541, 43.174121], [51.313379, 43.355664], [51.301758, 43.482373], [51.238965, 43.576709], [51.139648, 43.648779], [51.064844, 43.750146], [50.939844, 43.958545], [50.830762, 44.192773], [50.782617, 44.228027], [50.684961, 44.265088], [50.331152, 44.325488], [50.275586, 44.355127], [50.252539, 44.406494], [50.25293, 44.461523], [50.264551, 44.526562], [50.297461, 44.581543], [50.409473, 44.624023], [50.860352, 44.62876], [51.048828, 44.530469], [51.177148, 44.501367], [51.37666, 44.541211], [51.543555, 44.531006], [51.49375, 44.577539], [51.431055, 44.601953], [51.366309, 44.599854], [51.310254, 44.61875], [51.218164, 44.708984], [51.05791, 44.811572], [51.020703, 44.854004], [51.009375, 44.921826], [51.040332, 44.980322], [51.153711, 45.040234], [51.249902, 45.12168], [51.294043, 45.229785], [51.415723, 45.357861], [51.539648, 45.342871], [51.732617, 45.399463], [52.04873, 45.388379], [52.426758, 45.404639], [52.531055, 45.398633], [52.910742, 45.319727], [53.078906, 45.30752], [53.200391, 45.331982], [53.085742, 45.407373], [52.8375, 45.496729], [52.773828, 45.572754], [52.8875, 45.779541], [53.041602, 45.967871], [53.135254, 46.19165], [53.108984, 46.414062], [53.063965, 46.475293], [53.078516, 46.547461], [53.170215, 46.669043], [53.069434, 46.856055], [53.03457, 46.89292], [52.916016, 46.954395], [52.677637, 46.957129], [52.483203, 46.990674], [52.420313, 46.963672], [52.340332, 46.894775], [52.138281, 46.828613], [52.085547, 46.8396], [52.011133, 46.901904], [51.945117, 46.894873], [51.744531, 46.93374], [51.650098, 47.018066], [51.615234, 47.029932], [51.178027, 47.110156], [50.92002, 47.040674], [50.58291, 46.882275], [50.419336, 46.879492], [50.30625, 46.794922], [49.999805, 46.634277], [49.886328, 46.595654], [49.347461, 46.519141], [49.362109, 46.410205], [49.28584, 46.436816], [49.205664, 46.385693], [49.232227, 46.337158], [48.610156, 46.566455], [48.541211, 46.605615], [48.50918, 46.649951], [48.502344, 46.698633], [48.518555, 46.734326], [48.605273, 46.765918], [48.776367, 46.710352], [48.883594, 46.70542], [48.950293, 46.725781], [48.959375, 46.774609], [48.552539, 47.320996], [48.166992, 47.708789], [48.109961, 47.74541], [47.481934, 47.803906], [47.292383, 47.740918], [47.202051, 47.79248], [47.130762, 47.876758], [47.093262, 47.947705], [47.119043, 48.127002], [47.064648, 48.232471], [47.004297, 48.284473], [46.853125, 48.323584], [46.660938, 48.412256], [46.60918, 48.573877], [46.702637, 48.805566], [46.85293, 48.969629], [46.962207, 49.03833], [47.014258, 49.09834], [47.031348, 49.150293], [47.018164, 49.199902], [46.953418, 49.252588], [46.85293, 49.303857], [46.802051, 49.36709], [46.823145, 49.502246], [46.889551, 49.696973], [46.991992, 49.852734], [47.24834, 50.000879], [47.295215, 50.058496], [47.294727, 50.21748], [47.326465, 50.273535], [47.503613, 50.402734], [47.599609, 50.413574], [47.705762, 50.377979], [47.849609, 50.282324], [48.224805, 49.931934], [48.334961, 49.858252], [48.434277, 49.828516], [48.758984, 49.92832], [48.810254, 49.962402], [48.843262, 50.013135], [48.817969, 50.099854], [48.700488, 50.35376], [48.666016, 50.550342], [48.625098, 50.612695], [48.808398, 50.601318], [49.323438, 50.851709], [49.424609, 51.027002], [49.498047, 51.083594], [49.822266, 51.131885], [49.932324, 51.197168], [50.246875, 51.289502], [50.309277, 51.321582], [50.516309, 51.505615], [50.756152, 51.675146], [50.793945, 51.729199], [51.163477, 51.647461], [51.269922, 51.594482], [51.301074, 51.497412], [51.344531, 51.475342], [51.609082, 51.483984], [52.007129, 51.672705], [52.219141, 51.709375], [52.331055, 51.681299], [52.496191, 51.512158], [52.571191, 51.481641], [52.735059, 51.4979], [52.820508, 51.49458], [52.902637, 51.466943], [53.038379, 51.463721], [53.247266, 51.493604], [53.338086, 51.482373], [53.534668, 51.399561], [53.688086, 51.251807], [53.956836, 51.161182], [54.139746, 51.040771], [54.297852, 50.914062], [54.421484, 50.780322], [54.471484, 50.583789], [54.517383, 50.541162], [54.555273, 50.535791], [54.596191, 50.550684], [54.636133, 50.591602], [54.65, 50.660156], [54.637891, 50.781055], [54.60625, 50.879883], [54.546094, 50.946045], [54.572949, 50.990234], [54.641602, 51.011572], [54.727148, 50.998096], [54.867969, 50.941357], [55.014844, 50.869775], [55.195215, 50.744727], [55.361133, 50.665283], [55.542285, 50.601807], [55.68623, 50.582861], [55.797656, 50.602051], [56.049707, 50.713525], [56.143945, 50.844629], [56.491406, 51.019531], [56.620215, 50.980859], [56.849609, 51.045557], [57.011719, 51.065186], [57.179004, 51.036035], [57.3125, 50.946533], [57.442188, 50.888867], [57.557813, 50.895557], [57.653809, 50.925146], [57.764844, 51.046875], [57.838867, 51.09165], [58.045117, 51.068848], [58.188477, 51.081738], [58.35918, 51.063818], [58.547461, 50.971045], [58.814063, 50.737207], [58.883691, 50.694434], [59.452344, 50.62041], [59.523926, 50.582812], [59.497852, 50.511084], [59.523047, 50.492871], [59.751172, 50.543945], [59.812402, 50.582031], [59.955176, 50.799268], [60.005273, 50.839697], [60.058594, 50.850293], [60.112109, 50.83418], [60.288086, 50.70415], [60.424805, 50.67915], [60.637988, 50.663721], [60.942285, 50.695508], [61.226855, 50.774805], [61.389453, 50.861035], [61.465039, 50.990234], [61.512207, 51.137012], [61.585059, 51.229687], [61.554688, 51.324609], [61.363086, 51.441895], [61.014844, 51.492383], [60.973535, 51.537061], [60.464746, 51.651172], [60.418359, 51.703906], [60.3875, 51.772998], [60.280371, 51.834619], [60.06748, 51.890625], [60.030273, 51.933252], [60.065527, 51.976465], [60.233691, 52.024512], [60.425488, 52.125586], [60.499316, 52.146338], [60.670313, 52.15083], [60.937598, 52.280566], [60.994531, 52.336865], [60.979492, 52.394775], [60.821289, 52.569824], [60.774414, 52.675781], [60.802344, 52.744727], [60.944727, 52.860156], [61.047461, 52.972461], [61.400781, 52.995996], [61.974219, 52.94375], [62.037109, 52.966113], [62.082715, 53.00542], [62.081055, 53.057422], [62.014648, 53.107861], [61.766211, 53.173926], [61.659863, 53.228467], [61.576172, 53.222461], [61.436816, 53.239404], [61.310938, 53.275195], [61.199219, 53.287158], [61.162793, 53.336768], [61.185938, 53.406201], [61.228906, 53.445898], [61.311621, 53.465723], [61.400977, 53.455811], [61.498535, 53.484668], [61.534961, 53.523291], [61.519141, 53.554492], [61.474121, 53.580273], [61.409961, 53.587061], [61.247949, 53.550977], [60.979492, 53.621729], [60.985547, 53.657422], [61.073535, 53.710449], [61.113184, 53.753467], [61.113184, 53.882471], [61.14375, 53.963818], [61.231055, 54.019482], [61.333691, 54.049268], [61.928711, 53.946484], [61.985645, 53.954395], [62.040234, 54.002637], [62.499023, 54.013184], [62.632715, 54.069287], [63.073926, 54.105225], [63.191309, 54.171045], [63.413672, 54.183203], [63.701367, 54.243213], [63.84707, 54.236475], [64.003906, 54.26709], [64.062891, 54.30293], [64.199414, 54.347412], [64.46123, 54.38418], [64.525098, 54.362158], [64.649902, 54.352246], [64.926758, 54.396631], [65.088379, 54.340186], [65.157813, 54.364404], [65.237402, 54.516064], [65.378125, 54.564453], [65.476953, 54.623291], [65.707813, 54.618701], [65.914258, 54.693311], [65.954688, 54.659521], [66.222656, 54.667383], [67.09834, 54.788184], [67.257324, 54.828809], [67.693359, 54.872412], [67.829883, 54.943555], [68.155859, 54.976709], [68.209375, 55.003027], [68.244043, 55.052441], [68.20625, 55.160937], [68.301953, 55.186523], [68.524805, 55.204834], [68.712891, 55.308496], [68.977246, 55.3896], [69.493262, 55.356885], [69.740234, 55.307373], [69.981738, 55.199072], [70.182422, 55.162451], [70.371484, 55.212256], [70.417188, 55.253174], [70.486328, 55.282373], [70.738086, 55.305176], [70.910156, 55.127979], [71.185547, 54.599316], [71.15918, 54.538623], [71.152148, 54.364062], [71.052734, 54.260498], [71.093164, 54.212207], [71.336426, 54.15835], [71.677148, 54.178027], [71.887402, 54.221484], [72.004492, 54.205664], [72.065625, 54.231641], [72.105371, 54.308447], [72.186035, 54.325635], [72.269141, 54.272119], [72.387305, 54.123047], [72.383008, 54.053662], [72.404297, 53.964453], [72.446777, 53.941846], [72.585938, 53.995947], [72.599219, 54.023047], [72.564258, 54.09043], [72.582715, 54.121582], [72.622266, 54.134326], [72.914062, 54.107324], [73.119336, 53.980762], [73.229883, 53.957812], [73.380664, 53.962842], [73.505664, 53.999316], [73.617969, 54.067383], [73.712402, 54.042383], [73.715527, 53.996191], [73.678906, 53.929443], [73.399414, 53.811475], [73.305664, 53.707227], [73.285742, 53.598389], [73.361914, 53.506201], [73.371875, 53.454395], [73.406934, 53.447559], [73.469922, 53.468896], [73.642969, 53.57627], [73.858984, 53.619727], [74.068652, 53.611426], [74.209961, 53.576465], [74.351562, 53.487646], [74.402734, 53.504443], [74.429297, 53.550732], [74.430469, 53.603711], [74.451953, 53.647266], [74.83418, 53.825684], [75.052148, 53.826709], [75.220215, 53.893799], [75.377051, 53.970117], [75.398145, 54.068506], [75.437207, 54.089648], [75.692871, 54.114795], [75.880664, 54.167969], [76.266602, 54.311963], [76.496484, 54.335693], [76.759375, 54.436865], [76.837305, 54.442383], [76.788965, 54.321875], [76.703027, 54.182471], [76.65459, 54.145264], [76.42168, 54.151514], [76.42207, 54.113525], [76.484766, 54.022559], [76.575684, 53.942529], [77.704395, 53.37915], [77.859961, 53.269189], [78.475488, 52.638428], [79.468848, 51.493115], [79.98623, 50.774561], [80.065918, 50.758203], [80.086328, 50.83999], [80.220215, 50.911768], [80.345215, 50.919092], [80.423633, 50.946289], [80.452246, 50.997607], [80.421484, 51.136377], [80.448047, 51.18335], [80.605469, 51.224219], [80.650488, 51.277344], [80.735254, 51.293408], [80.877344, 51.281445], [80.934082, 51.242773], [80.965625, 51.189795], [81.127246, 51.191064], [81.141016, 51.146582], [81.077539, 51.014941], [81.071484, 50.96875], [81.124609, 50.946289], [81.319141, 50.966406], [81.388281, 50.956494], [81.451563, 50.823682], [81.431445, 50.771143], [81.465918, 50.739844], [81.633887, 50.739111], [81.752051, 50.764404], [81.933691, 50.766357], [82.098047, 50.71084], [82.326367, 50.741895], [82.493945, 50.727588], [82.611719, 50.771484], [82.76084, 50.893359], [83.019238, 50.897266], [83.092773, 50.960596], [83.160254, 50.989209], [83.357324, 50.99458], [83.717773, 50.887158], [83.945117, 50.774658], [84.002344, 50.676855], [84.099316, 50.604736], [84.175977, 50.520557], [84.194531, 50.437451], [84.257812, 50.288232], [84.323242, 50.23916], [84.607324, 50.202393], [84.838965, 50.091309], [84.924023, 50.087988], [84.989453, 50.061426], [84.999707, 50.010303], [84.975195, 49.951074], [85.000781, 49.894141], [85.210156, 49.664844], [85.232617, 49.61582], [85.291895, 49.599463], [85.371582, 49.623926], [85.933594, 49.550439], [85.974414, 49.499316], [86.180859, 49.499316], [86.292383, 49.5875], [86.417969, 49.638477], [86.610156, 49.769141], [86.675488, 49.777295], [86.728711, 49.748682], [86.730664, 49.695557], [86.614258, 49.609717], [86.626465, 49.562695], [86.714355, 49.558594], [86.812109, 49.487891], [86.95293, 49.32207], [87.000977, 49.287305], [87.070605, 49.25459], [87.233691, 49.216162], [87.296875, 49.147656], [87.322852, 49.085791], [87.22998, 49.105859], [87.048535, 49.109912], [86.885938, 49.090576], [86.808301, 49.049707], [86.753125, 49.008838], [86.728613, 48.939355], [86.757812, 48.860742], [86.717969, 48.697168], [86.549414, 48.528613], [86.265625, 48.454541], [85.829883, 48.408057], [85.749414, 48.385059], [85.626367, 48.204004], [85.562305, 48.051855], [85.525977, 47.915625], [85.561621, 47.746484], [85.586621, 47.493652], [85.669824, 47.338379], [85.656641, 47.254639], [85.577246, 47.188477], [85.529688, 47.100781], [85.484766, 47.063525], [85.233496, 47.036377], [85.012207, 46.909229], [84.858203, 46.843164], [84.786133, 46.830713], [84.745996, 46.864355], [84.719531, 46.939355], [84.666602, 46.972363], [84.338867, 46.996143], [84.016016, 46.970508], [83.713965, 47.021045], [83.090332, 47.209375], [83.029492, 47.185937], [83.004102, 47.033496], [82.974902, 46.966016], [82.692187, 46.38667], [82.555078, 46.158691], [82.511719, 46.005811], [82.429688, 45.811914], [82.315234, 45.594922], [82.32666, 45.519922], [82.611621, 45.424268], [82.625781, 45.374414], [82.621094, 45.293115], [82.596973, 45.215967], [82.521484, 45.125488], [82.478711, 45.123584], [82.323438, 45.205859], [82.266602, 45.219092], [81.944922, 45.16084], [81.86748, 45.18208], [81.789648, 45.226025], [81.758887, 45.31084], [81.691992, 45.349365], [81.602051, 45.31084], [80.85332, 45.129297], [80.634766, 45.126514], [80.05918, 45.006445], [79.871875, 44.883789], [79.875293, 44.86084], [79.997168, 44.797217], [80.255078, 44.808105], [80.455469, 44.746094], [80.481543, 44.714648], [80.455469, 44.684082], [80.400586, 44.676904], [80.381445, 44.65542], [80.391016, 44.626807], [80.355078, 44.552002], [80.336328, 44.438379], [80.365332, 44.223291], [80.355273, 44.097266], [80.395801, 44.047168], [80.431543, 43.951758], [80.495996, 43.89209], [80.650781, 43.56416], [80.703809, 43.427051], [80.66543, 43.352979], [80.667773, 43.310059], [80.729785, 43.274268], [80.785742, 43.161572], [80.777734, 43.118945], [80.751172, 43.10249], [80.616992, 43.128271], [80.390234, 43.043115], [80.371289, 42.995605], [80.383398, 42.973779], [80.450684, 42.935547], [80.54375, 42.911719], [80.538965, 42.873486], [80.424023, 42.855762], [80.250293, 42.797266], [80.202246, 42.734473], [80.165039, 42.665527], [80.161914, 42.625537], [80.205762, 42.399414], [80.259082, 42.2354], [80.209375, 42.190039], [79.921094, 42.413135], [79.803418, 42.438477], [79.490137, 42.457568], [79.428223, 42.483496], [79.367773, 42.547217], [79.203027, 42.666016], [79.164844, 42.759033], [79.12666, 42.775732], [79.059863, 42.763818], [78.885156, 42.774902], [78.524219, 42.864648], [78.023145, 42.85752], [77.80166, 42.895215], [77.235547, 42.912646], [77.057324, 42.970654], [76.988086, 42.973584], [76.50918, 42.918896], [75.840332, 42.9375], [75.789551, 42.93291], [75.681738, 42.830469], [75.635645, 42.8146], [75.366211, 42.836963], [75.047656, 42.904395], [74.817578, 42.978174], [74.209082, 43.240381], [74.186816, 43.205273], [74.145898, 43.194092], [73.949219, 43.19502], [73.886035, 43.132568], [73.612012, 43.0479], [73.55625, 43.002783], [73.421875, 42.593506], [73.492969, 42.409033], [73.411621, 42.419775], [73.316016, 42.466992], [73.28291, 42.504102], [73.19082, 42.526855], [72.855078, 42.561133], [72.75293, 42.637891], [72.543164, 42.677734], [72.275781, 42.757666], [72.161816, 42.760693], [71.760547, 42.821484], [71.514258, 42.766943], [71.42207, 42.783154], [71.256641, 42.733545], [71.022754, 42.535449], [71.001953, 42.459082], [70.892871, 42.33999], [70.892871, 42.293701], [70.946777, 42.248682]]]]}}, {"type": "Feature", "properties": {"iso": "AFG", "nom": "Afg'oniston"}, "geometry": {"type": "Polygon", "coordinates": [[[66.471875, 37.344727], [66.827734, 37.371289], [67.068848, 37.334814], [67.195508, 37.235205], [67.319727, 37.20957], [67.441699, 37.258008], [67.517285, 37.26665], [67.546484, 37.235645], [67.7, 37.227246], [67.75293, 37.199805], [67.766016, 37.140137], [67.834473, 37.064209], [67.958008, 36.972021], [68.067773, 36.949805], [68.212109, 37.021533], [68.260938, 37.013086], [68.284766, 37.036328], [68.299512, 37.088428], [68.386914, 37.1375], [68.546484, 37.183447], [68.637012, 37.224463], [68.669141, 37.258398], [68.82373, 37.270703], [68.855371, 37.316846], [68.911816, 37.333936], [68.960449, 37.325049], [69.264844, 37.108398], [69.303906, 37.116943], [69.414453, 37.207764], [69.429688, 37.290869], [69.399219, 37.399316], [69.420117, 37.486719], [69.49209, 37.553076], [69.625781, 37.594043], [69.820898, 37.60957], [69.940625, 37.600293], [69.984961, 37.566162], [70.044727, 37.547217], [70.119824, 37.543506], [70.188672, 37.582471], [70.251465, 37.66416], [70.25498, 37.765381], [70.199414, 37.886035], [70.214648, 37.924414], [70.313281, 37.984814], [70.417773, 38.075439], [70.61582, 38.334424], [70.735938, 38.422559], [70.878906, 38.456396], [71.052148, 38.417871], [71.255859, 38.306982], [71.332715, 38.170264], [71.282813, 38.00791], [71.278516, 37.918408], [71.319922, 37.901855], [71.551953, 37.933154], [71.582227, 37.910107], [71.505078, 37.60293], [71.43291, 37.127539], [71.530859, 36.845117], [71.597461, 36.73291], [71.665625, 36.696924], [71.733789, 36.684033], [71.802051, 36.694287], [72.153516, 36.900537], [72.358789, 36.98291], [72.657422, 37.029053], [72.757031, 37.172705], [72.895508, 37.267529], [73.211133, 37.408496], [73.38291, 37.462256], [73.481348, 37.47168], [73.720605, 37.41875], [73.733789, 37.375781], [73.717285, 37.329443], [73.648828, 37.291211], [73.627539, 37.261572], [73.653516, 37.239355], [73.749609, 37.231787], [74.16709, 37.329443], [74.259668, 37.41543], [74.349023, 37.41875], [74.524219, 37.382373], [74.659375, 37.394482], [74.730566, 37.357031], [74.891309, 37.231641], [74.840234, 37.225049], [74.767383, 37.24917], [74.72666, 37.290723], [74.372168, 37.157715], [74.376172, 37.137354], [74.541406, 37.022168], [74.038867, 36.825732], [74.001855, 36.823096], [73.769141, 36.888477], [73.116797, 36.868555], [72.622852, 36.82959], [72.431152, 36.76582], [72.249805, 36.734717], [72.156738, 36.700879], [72.095605, 36.63374], [71.822266, 36.486084], [71.772656, 36.431836], [71.620508, 36.436475], [71.463281, 36.293262], [71.23291, 36.121777], [71.185059, 36.04209], [71.220215, 36.000684], [71.342871, 35.938525], [71.397559, 35.880176], [71.483594, 35.7146], [71.519043, 35.59751], [71.571973, 35.546826], [71.600586, 35.40791], [71.545508, 35.328516], [71.545508, 35.288867], [71.620508, 35.183008], [71.455078, 34.966943], [71.294141, 34.867725], [71.225781, 34.779541], [71.113281, 34.681592], [71.065625, 34.599609], [70.965625, 34.530371], [70.978906, 34.486279], [71.022949, 34.431152], [71.095703, 34.369434], [71.091309, 34.120264], [71.051563, 34.049707], [70.848438, 33.981885], [70.654004, 33.952295], [70.325684, 33.961133], [69.994727, 34.051807], [69.889648, 34.007275], [69.868066, 33.897656], [70.056641, 33.719873], [70.13418, 33.620752], [70.219727, 33.454687], [70.28418, 33.369043], [70.261133, 33.289014], [69.920117, 33.1125], [69.703711, 33.094727], [69.567773, 33.06416], [69.501563, 33.020068], [69.453125, 32.832812], [69.40459, 32.764258], [69.405371, 32.682715], [69.359473, 32.590332], [69.289941, 32.530566], [69.241406, 32.433545], [69.279297, 31.936816], [69.083105, 31.738477], [68.973438, 31.667383], [68.868945, 31.634229], [68.782324, 31.646436], [68.673242, 31.759717], [68.597656, 31.802979], [68.520703, 31.794141], [68.443262, 31.754492], [68.319824, 31.767676], [68.213965, 31.807373], [68.161035, 31.802979], [68.017188, 31.677979], [67.739844, 31.548193], [67.626758, 31.53877], [67.578223, 31.506494], [67.597559, 31.45332], [67.64707, 31.409961], [67.733496, 31.379248], [67.737891, 31.343945], [67.596387, 31.277686], [67.452832, 31.234619], [67.287305, 31.217822], [67.115918, 31.24292], [67.027734, 31.300244], [66.924316, 31.305615], [66.829297, 31.263672], [66.731348, 31.194531], [66.595801, 31.019971], [66.397168, 30.912207], [66.346875, 30.802783], [66.286914, 30.60791], [66.305469, 30.321143], [66.281836, 30.193457], [66.238477, 30.109619], [66.247168, 30.043506], [66.313379, 29.968555], [66.23125, 29.865723], [66.177051, 29.835596], [65.095508, 29.559473], [64.521094, 29.564502], [64.39375, 29.544336], [64.266113, 29.506934], [64.172168, 29.460352], [64.09873, 29.391943], [63.970996, 29.430078], [63.567578, 29.497998], [62.476562, 29.40835], [62.373438, 29.425391], [60.843359, 29.858691], [61.78418, 30.831934], [61.81084, 30.913281], [61.814258, 31.072559], [61.755078, 31.285303], [61.660156, 31.382422], [60.820703, 31.495166], [60.791602, 31.660596], [60.804297, 31.734473], [60.7875, 31.877197], [60.829297, 32.249414], [60.561914, 33.058789], [60.560547, 33.137842], [60.718066, 33.323535], [60.916992, 33.505225], [60.906934, 33.538965], [60.806445, 33.558691], [60.65459, 33.5604], [60.573828, 33.58833], [60.51084, 33.638916], [60.485938, 33.711914], [60.527051, 33.841992], [60.485742, 34.094775], [60.642676, 34.307178], [60.889453, 34.319434], [60.72627, 34.518262], [60.739453, 34.544727], [60.802344, 34.554639], [60.951172, 34.653857], [60.957813, 34.710059], [61.080078, 34.855615], [61.070215, 34.921729], [61.149609, 35.09375], [61.106641, 35.209473], [61.1, 35.272314], [61.189258, 35.312012], [61.245508, 35.474072], [61.278516, 35.51377], [61.262012, 35.61958], [61.344727, 35.629492], [61.421777, 35.545801], [61.542773, 35.457861], [61.620996, 35.432324], [61.719727, 35.419434], [61.983887, 35.443701], [62.213086, 35.289941], [62.252832, 35.250244], [62.271191, 35.189111], [62.307813, 35.170801], [62.386621, 35.23125], [62.462891, 35.251367], [62.610547, 35.233154], [62.688086, 35.255322], [63.056641, 35.445801], [63.08418, 35.568066], [63.119336, 35.637549], [63.169727, 35.678125], [63.108594, 35.818701], [63.12998, 35.846191], [63.30166, 35.858398], [63.8625, 36.012354], [64.009668, 36.012109], [64.042383, 36.025098], [64.051367, 36.067627], [64.092188, 36.112695], [64.358008, 36.226074], [64.511035, 36.340674], [64.56582, 36.427588], [64.816309, 37.13208], [65.089648, 37.237939], [65.55498, 37.251172], [65.641211, 37.467822], [65.683008, 37.519141], [65.765039, 37.569141], [66.108398, 37.414746], [66.471875, 37.344727]]]}}]}